[{"male": "modenese", "female": "modenese", "male_plural": "modenesi", "female_plural": "modenesi", "place_name": "Modena"}, {"male": "sassolese", "female": "sassolese", "male_plural": "sassolesi", "female_plural": "sassolesi", "place_name": "Sassuolo"}, {"male": "carpigiano", "female": "carpigiana", "male_plural": "carpigiani", "female_plural": "carpigiane", "place_name": "Carpi"}, {"male": "finalese", "female": "finalese", "male_plural": "finalesi", "female_plural": "finalesi", "place_name": "Finale Emilia"}, {"male": "reggiano", "female": "reggiana", "male_plural": "reggiani", "female_plural": "reggiane", "place_name": "Reggio Emilia"}, {"male": "castelvetrano", "female": "castelvetrana", "male_plural": "castelvetrani", "female_plural": "castelvetrane", "place_name": "Castelvetro"}, {"male": "vignolese", "female": "vignolese", "male_plural": "vignolesi", "female_plural": "vignolesi", "place_name": "Vignola"}, {"male": "bolognese", "female": "bolognese", "male_plural": "bolognesi", "female_plural": "bolognesi", "place_name": "Bologna"}, {"male": "riminese", "female": "riminese", "male_plural": "riminesi", "female_plural": "riminesi", "place_name": "Rimini"}, {"male": "piacentino", "female": "piacentina", "male_plural": "piacentini", "female_plural": "piacentine", "place_name": "Piacenza"}, {"male": "parmense", "female": "parmense", "male_plural": "parmensi", "female_plural": "parmensi", "place_name": "Parma"}, {"male": "cesenate", "female": "cesenate", "male_plural": "cesenati", "female_plural": "cesenati", "place_name": "Cesantico"}, {"male": "romano", "female": "romana", "male_plural": "romani", "female_plural": "romane", "place_name": "Roma"}, {"male": "foggiano", "female": "foggiana", "male_plural": "foggiani", "female_plural": "foggiane", "place_name": "Foggia"}, {"male": "barese", "female": "barese", "male_plural": "baresi", "female_plural": "baresi", "place_name": "Bari"}, {"male": "napoletano", "female": "napoletana", "male_plural": "napoletani", "female_plural": "napoletane", "place_name": "Napoli"}, {"male": "milanese", "female": "milanese", "male_plural": "milanesi", "female_plural": "milanesi", "place_name": "Milano"}, {"male": "bergamasco", "female": "bergamasca", "male_plural": "bergamaschi", "female_plural": "bergamasche", "place_name": "Bergamo"}, {"male": "bresciano", "female": "bresciana", "male_plural": "bresciani", "female_plural": "bresciane", "place_name": "Brescia"}, {"male": "alessandrino", "female": "alessandrina", "male_plural": "alessandrini", "female_plural": "alessandrine", "place_name": "Alessandria"}, {"male": "torinese", "female": "torinese", "male_plural": "torinesi", "female_plural": "torinesi", "place_name": "Torino"}, {"male": "perugino", "female": "perugina", "male_plural": "perugini", "female_plural": "perugine", "place_name": "Perugia"}, {"male": "fiorentino", "female": "fiorentina", "male_plural": "fiorentini", "female_plural": "fiorentine", "place_name": "Firenze"}, {"male": "senese", "female": "senese", "male_plural": "senesi", "female_plural": "senesi", "place_name": "Siena"}, {"male": "aretino", "female": "aretina", "male_plural": "aretini", "female_plural": "arentine", "place_name": "Arezzo"}, {"male": "padovano", "female": "padovana", "male_plural": "padovani", "female_plural": "padovane", "place_name": "Padova"}, {"male": "veronese", "female": "veronese", "male_plural": "veronesi", "female_plural": "veronesi", "place_name": "Verona"}, {"male": "fioranese", "female": "fioranese", "male_plural": "fioranesi", "female_plural": "fioranesi", "place_name": "Fiorano Modenese"}]
