[{"male": "ligure", "female": "ligure", "male_plural": "liguri", "female_plural": "liguri", "place_name": "della Liguria"}, {"male": "piemontese", "female": "piemontese", "male_plural": "piemontesi", "female_plural": "piemontesi", "place_name": "del Piemonte"}, {"male": "valdostano", "female": "valdostana", "male_plural": "valdostani", "female_plural": "valdostane", "place_name": "della Val d'Aosta"}, {"male": "lombardo", "female": "lombarda", "male_plural": "lombardi", "female_plural": "lombarde", "place_name": "della Lombardia"}, {"male": "veneto", "female": "veneta", "male_plural": "veneti", "female_plural": "venete", "place_name": "del Veneto"}, {"male": "altoatesino", "female": "altoatesina", "male_plural": "altoatesini", "female_plural": "altoatesine", "place_name": "dell'Alto Adige"}, {"male": "friulano", "female": "friulana", "male_plural": "friulani", "female_plural": "friulane", "place_name": "del Friuli"}, {"male": "emiliano", "female": "emiliana", "male_plural": "emiliani", "female_plural": "emiliane", "place_name": "dell'Emilia"}, {"male": "romagnolo", "female": "romagnola", "male_plural": "romagnoli", "female_plural": "romagnole", "place_name": "della Romagna"}, {"male": "toscano", "female": "toscana", "male_plural": "toscani", "female_plural": "toscane", "place_name": "della Toscana"}, {"male": "marchigiano", "female": "marchigiana", "male_plural": "marchigiani", "female_plural": "marchigiane", "place_name": "della Marche"}, {"male": "umbro", "female": "umbra", "male_plural": "umbri", "female_plural": "umbre", "place_name": "dell'Umbria"}, {"male": "abruzzese", "female": "abruzzese", "male_plural": "abruzzesi", "female_plural": "abruzzesi", "place_name": "dell'Abruzzo"}, {"male": "molisano", "female": "molisana", "male_plural": "molisani", "female_plural": "molisane", "place_name": "del Molise"}, {"male": "laziale", "female": "laziale", "male_plural": "laziali", "female_plural": "laziali", "place_name": "del Lazio"}, {"male": "campano", "female": "campana", "male_plural": "campani", "female_plural": "campane", "place_name": "della Campania"}, {"male": "lucano", "female": "lucana", "male_plural": "lucani", "female_plural": "lucane", "place_name": "della Basilicata"}, {"male": "calabrese", "female": "calabrese", "male_plural": "calabresi", "female_plural": "calabresi", "place_name": "della Calabria"}, {"male": "pugliese", "female": "pugliese", "male_plural": "pugliesi", "female_plural": "pugliesi", "place_name":"della Puglia"}, {"male": "siciliano", "female": "siciliana", "male_plural": "siciliani", "female_plural": "siciliane", "place_name": "della Sicilia"}, {"male": "sardo", "female": "sarda", "male_plural": "sardi", "female_plural": "sarde", "place_name": "della Sardegna"}]
